NORAD_CAT_ID,OBJECT_NAME,OBJECT_TYPE,EPOCH,MEAN_MOTION,ECCENTRICITY,INCLINATION,RA_OF_ASC_NODE,ARG_OF_PERICENTER,MEAN_ANOMALY,BSTAR,MEAN_MOTION_DOT,MEAN_MOTION_DDOT,TLE_LINE0,TLE_LINE1,TLE_LINE2,SEMIMAJOR_AXIS,PERIOD,APOGEE,PERIGEE,DECAYED
52373.0,STARLINK-3550,PAYLOAD,2023-09-19 10:14:06,15.08856815,0.0001551,53.2155,279.5358,89.2731,270.8439,0.0005938,9.179e-05,0.0,0 STARLINK-3550,1 52373U 22045AU  23262.42646286  .00009179  00000-0  59380-3 0  9990,2 52373  53.2155 279.5358 0001551  89.2731 270.8439 15.08856815 79718,6917.829,95.436,540.767,538.621,0.0
52373.0,STARLINK-3550,PAYLOAD,2023-09-20 05:18:44,15.08832275,0.0001713,53.2155,275.9676,87.6046,272.5142,-8.0484e-05,-1.568e-05,0.0,0 STARLINK-3550,1 52373U 22045AU  23263.22134929 -.00001568  00000-0 -80484-4 0  9991,2 52373  53.2155 275.9676 0001713  87.6046 272.5142 15.08832275 79839,6917.904,95.438,540.954,538.584,0.0
52373.0,STARLINK-3550,PAYLOAD,2023-09-20 10:04:54,15.08833438,0.0001592,53.2157,275.0755,83.1401,276.9772,0.00015519,2.182e-05,0.0,0 STARLINK-3550,1 52373U 22045AU  23263.42007072  .00002182  00000-0  15519-3 0  9998,2 52373  53.2157 275.0755 0001592  83.1401 276.9772 15.08833438 79863,6917.9,95.438,540.867,538.664,0.0
52373.0,STARLINK-3550,PAYLOAD,2023-09-20 18:01:50,15.08827898,0.0001558,53.2155,273.5883,84.0239,276.093,0.00018818,2.707e-05,0.0,0 STARLINK-3550,1 52373U 22045AU  23263.75127465  .00002707  00000-0  18818-3 0  9991,2 52373  53.2155 273.5883 0001558  84.0239 276.0930 15.08827898 79913,6917.917,95.438,540.86,538.705,0.0
52373.0,STARLINK-3550,PAYLOAD,2023-09-21 08:20:18,15.08835803,0.0001559,53.2157,270.9124,83.6959,276.4211,0.00041854,6.379e-05,0.0,0 STARLINK-3550,1 52373U 22045AU  23264.34743830  .00006379  00000-0  41854-3 0  9992,2 52373  53.2157 270.9124 0001559  83.6959 276.4211 15.08835803 80002,6917.893,95.438,540.837,538.68,0.0
52373.0,STARLINK-3550,PAYLOAD,2023-09-21 09:55:41,15.08837047,0.00016,53.2157,270.6154,82.6985,277.4189,0.00044607,6.818e-05,0.0,0 STARLINK-3550,1 52373U 22045AU  23264.41367858  .00006818  00000-0  44607-3 0  9999,2 52373  53.2157 270.6154 0001600  82.6985 277.4189 15.08837047 80015,6917.889,95.438,540.861,538.648,0.0
52373.0,STARLINK-3550,PAYLOAD,2023-09-21 17:52:37,15.08840799,0.0001588,53.2159,269.1282,82.4086,277.7086,0.0004616,7.066e-05,0.0,0 STARLINK-3550,1 52373U 22045AU  23264.74487899  .00007066  00000-0  46160-3 0  9995,2 52373  53.2159 269.1282 0001588  82.4086 277.7086 15.08840799 80069,6917.878,95.438,540.842,538.644,0.0
52373.0,STARLINK-3550,PAYLOAD,2023-09-22 11:21:51,15.08858447,0.0001622,53.2158,265.8572,83.4384,276.6793,0.00067927,0.00010545,0.0,0 STARLINK-3550,1 52373U 22045AU  23265.47351346  .00010545  00000-0  67927-3 0  9993,2 52373  53.2158 265.8572 0001622  83.4384 276.6793 15.08858447 80178,6917.824,95.436,540.811,538.567,0.0
52373.0,STARLINK-3550,PAYLOAD,2023-09-22 17:43:23,15.0886482,0.0001622,53.2158,264.6679,83.2371,276.8805,0.00070561,0.00010967,0.0,0 STARLINK-3550,1 52373U 22045AU  23265.73846936  .00010967  00000-0  70561-3 0  9992,2 52373  53.2158 264.6679 0001622  83.2371 276.8805 15.08864820 80210,6917.805,95.436,540.792,538.547,0.0
52373.0,STARLINK-3550,PAYLOAD,2023-09-23 00:04:56,15.08849934,0.0001756,53.2158,263.4787,81.9422,278.1769,0.00031851,4.786e-05,0.0,0 STARLINK-3550,1 52373U 22045AU  23266.00343490  .00004786  00000-0  31851-3 0  9991,2 52373  53.2158 263.4787 0001756  81.9422 278.1769 15.08849934 80254,6917.85,95.437,540.93,538.5,0.0
52373.0,STARLINK-3550,PAYLOAD,2023-09-23 06:26:29,15.08854149,0.0001575,53.2158,262.2889,90.8491,269.2682,0.00041889,6.387e-05,0.0,0 STARLINK-3550,1 52373U 22045AU  23266.26839226  .00006387  00000-0  41889-3 0  9997,2 52373  53.2158 262.2889 0001575  90.8491 269.2682 15.08854149 80291,6917.837,95.437,540.792,538.613,0.0
52373.0,STARLINK-3550,PAYLOAD,2023-09-24 04:41:53,15.08839971,0.0001604,53.2162,258.1244,103.5254,256.5916,0.0005645,8.707e-05,0.0,0 STARLINK-3550,1 52373U 22045AU  23267.19575666  .00008707  00000-0  56450-3 0  9993,2 52373  53.2162 258.1244 0001604 103.5254 256.5916 15.08839971 80438,6917.88,95.438,540.855,538.636,0.0
52373.0,STARLINK-3550,PAYLOAD,2023-09-24 11:03:25,15.08846661,0.0001461,53.2165,256.9354,87.167,272.9489,0.00051935,7.989e-05,0.0,0 STARLINK-3550,1 52373U 22045AU  23267.46071605  .00007989  00000-0  51935-3 0  9991,2 52373  53.2165 256.9354 0001461  87.1670 272.9489 15.08846661 80474,6917.86,95.437,540.736,538.714,0.0
52373.0,STARLINK-3550,PAYLOAD,2023-09-25 06:08:03,15.08848696,0.0001536,53.2155,253.367,95.3755,264.7413,0.00060208,9.309e-05,0.0,0 STARLINK-3550,1 52373U 22045AU  23268.25559636  .00009309  00000-0  60208-3 0  9995,2 52373  53.2155 253.3670 0001536  95.3755 264.7413 15.08848696 80592,6917.854,95.437,540.781,538.656,0.0
52373.0,STARLINK-3550,PAYLOAD,2023-09-25 10:54:12,15.08857386,0.0001681,53.2152,252.476,97.5645,262.5538,0.00058213,8.993e-05,0.0,0 STARLINK-3550,1 52373U 22045AU  23268.45431451  .00008993  00000-0  58213-3 0  9992,2 52373  53.2152 252.4760 0001681  97.5645 262.5538 15.08857386 80626,6917.827,95.436,540.855,538.529,0.0
52373.0,STARLINK-3550,PAYLOAD,2023-09-25 15:40:22,15.08843588,0.0002085,53.2153,251.5819,98.4881,261.6347,0.00041718,6.358e-05,0.0,0 STARLINK-3550,1 52373U 22045AU  23268.65303838  .00006358  00000-0  41718-3 0  9996,2 52373  53.2153 251.5819 0002085  98.4881 261.6347 15.08843588 80653,6917.869,95.437,541.177,538.292,0.0
52373.0,STARLINK-3550,PAYLOAD,2023-09-26 02:48:03,15.08863445,0.0001563,53.2151,249.5006,111.208,248.9079,0.00086676,0.00013542,0.0,0 STARLINK-3550,1 52373U 22045AU  23269.11670890  .00013542  00000-0  86676-3 0  9998,2 52373  53.2151 249.5006 0001563 111.2080 248.9079 15.08863445 80723,6917.809,95.436,540.755,538.592,0.0
52373.0,STARLINK-3550,PAYLOAD,2023-09-26 04:23:26,15.0886172,0.0001439,53.2156,249.2039,100.2212,259.8942,0.00089194,0.00013944,0.0,0 STARLINK-3550,1 52373U 22045AU  23269.18294904  .00013944  00000-0  89194-3 0  9997,2 52373  53.2156 249.2039 0001439 100.2212 259.8942 15.08861720 80733,6917.814,95.436,540.674,538.684,0.0
52373.0,STARLINK-3550,PAYLOAD,2023-09-26 21:52:41,15.08855177,0.0001529,53.214,245.9334,102.6277,257.4886,0.00056835,8.773e-05,0.0,0 STARLINK-3550,1 52373U 22045AU  23269.91158821  .00008773  00000-0  56835-3 0  9995,2 52373  53.2140 245.9334 0001529 102.6277 257.4886 15.08855177 80846,6917.834,95.437,540.757,538.641,0.0
52373.0,STARLINK-3550,PAYLOAD,2023-09-27 09:00:23,15.0883212,0.0001394,53.2147,243.85,111.6724,248.4416,0.00017296,2.465e-05,0.0,0 STARLINK-3550,1 52373U 22045AU  23270.37527310  .00002465  00000-0  17296-3 0  9990,2 52373  53.2147 243.8500 0001394 111.6724 248.4416 15.08832120 80912,6917.904,95.438,540.734,538.805,0.0
52373.0,STARLINK-3550,PAYLOAD,2023-09-28 04:05:02,15.088247,0.0001476,53.2157,240.2802,93.6254,266.4907,2.5616e-05,1.2e-06,0.0,0 STARLINK-3550,1 52373U 22045AU  23271.17016439  .00000120  00000-0  25616-4 0  9996,2 52373  53.2157 240.2802 0001476  93.6254 266.4907 15.08824700 81031,6917.927,95.439,540.813,538.771,0.0
52373.0,STARLINK-3550,PAYLOAD,2023-09-28 07:15:48,15.08835194,0.0001622,53.2168,239.6864,100.7364,259.3811,-5.3237e-05,-1.135e-05,0.0,0 STARLINK-3550,1 52373U 22045AU  23271.30264202 -.00001135  00000-0 -53237-4 0  9993,2 52373  53.2168 239.6864 0001622 100.7364 259.3811 15.08835194 81054,6917.895,95.438,540.882,538.638,0.0
52373.0,STARLINK-3550,PAYLOAD,2023-09-29 10:17:21,15.08848124,0.0001543,53.2172,234.6308,92.7519,267.365,0.00036755,5.568e-05,0.0,0 STARLINK-3550,1 52373U 22045AU  23272.42872187  .00005568  00000-0  36755-3 0  9991,2 52373  53.2172 234.6308 0001543  92.7519 267.3650 15.08848124 81227,6917.856,95.437,540.788,538.653,0.0
52373.0,STARLINK-3550,PAYLOAD,2023-09-30 03:46:36,15.08850887,0.0001604,53.2173,231.3578,85.5423,274.5753,0.00030709,4.604e-05,0.0,0 STARLINK-3550,1 52373U 22045AU  23273.15736136  .00004604  00000-0  30709-3 0  9998,2 52373  53.2173 231.3578 0001604  85.5423 274.5753 15.08850887 81338,6917.847,95.437,540.822,538.602,0.0
52373.0,STARLINK-3550,PAYLOAD,2023-09-30 14:54:18,15.08840107,0.0001818,53.2171,229.276,114.6144,245.5038,2.1174e-05,4.9e-07,0.0,0 STARLINK-3550,1 52373U 22045AU  23273.62104247  .00000049  00000-0  21174-4 0  9998,2 52373  53.2171 229.2760 0001818 114.6144 245.5038 15.08840107 81402,6917.88,95.438,541.003,538.487,0.0
52373.0,STARLINK-3550,PAYLOAD,2023-10-01 03:37:23,15.08841381,0.0001654,53.2166,226.8999,108.8501,251.267,-2.7693e-05,-7.29e-06,0.0,0 STARLINK-3550,1 52373U 22045AU  23274.15096125 -.00000729  00000-0 -27693-4 0  9991,2 52373  53.2166 226.8999 0001654 108.8501 251.2670 15.08841381 81482,6917.876,95.437,540.885,538.597,0.0
52373.0,STARLINK-3550,PAYLOAD,2023-10-01 21:06:37,15.08845206,0.0001539,53.2172,223.6295,114.5238,245.5914,0.00019226,2.774e-05,0.0,0 STARLINK-3550,1 52373U 22045AU  23274.87960039  .00002774  00000-0  19226-3 0  9996,2 52373  53.2172 223.6295 0001539 114.5238 245.5914 15.08845206 81595,6917.864,95.437,540.794,538.665,0.0
52373.0,STARLINK-3550,PAYLOAD,2023-10-02 01:52:46,15.08850692,0.0001581,53.2168,222.7375,106.8335,253.2831,0.00017153,2.444e-05,0.0,0 STARLINK-3550,1 52373U 22045AU  23275.07831826  .00002444  00000-0  17153-3 0  9991,2 52373  53.2168 222.7375 0001581 106.8335 253.2831 15.08850692 81621,6917.848,95.437,540.806,538.619,0.0
52373.0,STARLINK-3550,PAYLOAD,2023-10-02 20:57:25,15.08836094,0.0001925,53.2189,219.1718,94.8915,265.2297,8.5594e-05,1.074e-05,0.0,0 STARLINK-3550,1 52373U 22045AU  23275.87320639  .00001074  00000-0  85594-4 0  9997,2 52373  53.2189 219.1718 0001925  94.8915 265.2297 15.08836094 81749,6917.892,95.438,541.089,538.426,0.0
52373.0,STARLINK-3550,PAYLOAD,2023-10-03 12:51:16,15.08833235,0.0001212,53.215,216.197,88.1389,271.9742,0.00013626,1.881e-05,0.0,0 STARLINK-3550,1 52373U 22045AU  23276.53560763  .00001881  00000-0  13626-3 0  9997,2 52373  53.2150 216.1970 0001212  88.1389 271.9742 15.08833235 81848,6917.901,95.438,540.605,538.928,0.0
